[{"OBJECT_NAME":"STARLINK-5900","OBJECT_ID":"2023-037AL","EPOCH":"2026-03-09T21:53:00.724416","MEAN_MOTION":14.98330711,"ECCENTRICITY":0.00030004,"INCLINATION":69.9985,"RA_OF_ASC_NODE":264.0093,"ARG_OF_PERICENTER":269.6248,"MEAN_ANOMALY":90.4568,"EPHEMERIS_TYPE":0,"CLASSIFICATION_TYPE":"U","NORAD_CAT_ID":55948,"ELEMENT_SET_NO":999,"REV_AT_EPOCH":16450,"BSTAR":1.4037792e-5,"MEAN_MOTION_DOT":7.4e-7,"MEAN_MOTION_DDOT":0},{"OBJECT_NAME":"CZ-2D R\/B","OBJECT_ID":"2018-048C","EPOCH":"2026-03-09T15:04:20.679168","MEAN_MOTION":14.94740995,"ECCENTRICITY":0.001273,"INCLINATION":97.5865,"RA_OF_ASC_NODE":101.6245,"ARG_OF_PERICENTER":129.2773,"MEAN_ANOMALY":230.9579,"EPHEMERIS_TYPE":0,"CLASSIFICATION_TYPE":"U","NORAD_CAT_ID":43486,"ELEMENT_SET_NO":999,"REV_AT_EPOCH":42028,"BSTAR":0.00054527,"MEAN_MOTION_DOT":5.879e-5,"MEAN_MOTION_DDOT":0}]
